start=new Date('2022-08-03T00:00:00.000Z').valueOf();
sats=[{"SITE":"AFETR","SEMIMAJOR_AXIS":"6925.356","COUNTRY_CODE":"US","CENTER_NAME":"EARTH","OBJECT_ID":"2021-005AZ","APOAPSIS":"548.407","REF_FRAME":"TEME","OBJECT_TYPE":"PAYLOAD","TIME_SYSTEM":"UTC","PERIAPSIS":"546.035","GP_ID":"209427104","DECAY_DATE":null,"BSTAR":"0.00009865900000","MEAN_ANOMALY":"281.5275","LAUNCH_DATE":"2021-01-20","MEAN_ELEMENT_THEORY":"SGP4","EPOCH":"2022-08-02T03:41:50.243136","OBJECT_NAME":"STARLINK-2118","NORAD_CAT_ID":"47396","ARG_OF_PERICENTER":"78.5906","RCS_SIZE":"LARGE","TLE_LINE2":"2 47396  53.0541 177.2906 0001713  78.5906 281.5275 15.06397630 85180","MEAN_MOTION_DOT":"0.00001188","ECCENTRICITY":"0.00017130","INCLINATION":"53.0541","MEAN_MOTION":"15.06397630","TLE_LINE1":"1 47396U 21005AZ  22214.15405374  .00001188  00000-0  98659-4 0  9996","FILE":"3527697","MEAN_MOTION_DDOT":"0.0000000000000","EPHEMERIS_TYPE":"0","CLASSIFICATION_TYPE":"U","PERIOD":"95.592","RA_OF_ASC_NODE":"177.2906","ELEMENT_SET_NO":"999","REV_AT_EPOCH":"8518"},{"REV_AT_EPOCH":"8480","PERIOD":"95.592","ELEMENT_SET_NO":"999","RA_OF_ASC_NODE":"206.1009","FILE":"3527697","MEAN_MOTION_DDOT":"0.0000000000000","EPHEMERIS_TYPE":"0","CLASSIFICATION_TYPE":"U","MEAN_MOTION":"15.06400247","TLE_LINE1":"1 47397U 21005BA  22214.41667555 -.00001722  00000-0 -96720-4 0  9990","ECCENTRICITY":"0.00016880","INCLINATION":"53.0532","TLE_LINE2":"2 47397  53.0532 206.1009 0001688  58.8503 301.2651 15.06400247 84807","MEAN_MOTION_DOT":"-0.00001722","ARG_OF_PERICENTER":"58.8503","RCS_SIZE":"LARGE","NORAD_CAT_ID":"47397","LAUNCH_DATE":"2021-01-20","MEAN_ELEMENT_THEORY":"SGP4","EPOCH":"2022-08-02T10:00:00.767520","OBJECT_NAME":"STARLINK-2119","BSTAR":"-0.00009672000000","MEAN_ANOMALY":"301.2651","GP_ID":"209426855","DECAY_DATE":null,"OBJECT_TYPE":"PAYLOAD","TIME_SYSTEM":"UTC","PERIAPSIS":"546.044","APOAPSIS":"548.382","REF_FRAME":"TEME","COUNTRY_CODE":"US","OBJECT_ID":"2021-005BA","CENTER_NAME":"EARTH","SITE":"AFETR","SEMIMAJOR_AXIS":"6925.348"},{"NORAD_CAT_ID":"47398","RCS_SIZE":"LARGE","ARG_OF_PERICENTER":"66.0795","MEAN_MOTION_DOT":"0.00001309","TLE_LINE2":"2 47398  53.0542 176.5369 0001792  66.0795 294.0381 15.06409200 85200","INCLINATION":"53.0542","ECCENTRICITY":"0.00017920","TLE_LINE1":"1 47398U 21005BB  22214.32361712  .00001309  00000-0  10677-3 0  9992","MEAN_MOTION":"15.06409200","CLASSIFICATION_TYPE":"U","EPHEMERIS_TYPE":"0","MEAN_MOTION_DDOT":"0.0000000000000","FILE":"3527697","RA_OF_ASC_NODE":"176.5369","ELEMENT_SET_NO":"999","PERIOD":"95.592","REV_AT_EPOCH":"8520","SEMIMAJOR_AXIS":"6925.320","SITE":"AFETR","OBJECT_ID":"2021-005BB","CENTER_NAME":"EARTH","COUNTRY_CODE":"US","REF_FRAME":"TEME","APOAPSIS":"548.426","PERIAPSIS":"545.944","TIME_SYSTEM":"UTC","OBJECT_TYPE":"PAYLOAD","DECAY_DATE":null,"GP_ID":"209428106","MEAN_ANOMALY":"294.0381","BSTAR":"0.00010677000000","OBJECT_NAME":"STARLINK-2120","LAUNCH_DATE":"2021-01-20","MEAN_ELEMENT_THEORY":"SGP4","EPOCH":"2022-08-02T07:46:00.519168"},{"CENTER_NAME":"EARTH","OBJECT_ID":"2021-005BC","COUNTRY_CODE":"US","SITE":"AFETR","SEMIMAJOR_AXIS":"6925.369","OBJECT_TYPE":"PAYLOAD","PERIAPSIS":"545.997","TIME_SYSTEM":"UTC","REF_FRAME":"TEME","APOAPSIS":"548.471","GP_ID":"209427857","DECAY_DATE":null,"LAUNCH_DATE":"2021-01-20","MEAN_ELEMENT_THEORY":"SGP4","EPOCH":"2022-08-02T05:26:42.688608","OBJECT_NAME":"STARLINK-2121","BSTAR":"-0.00001926300000","MEAN_ANOMALY":"297.9959","ARG_OF_PERICENTER":"62.1211","RCS_SIZE":"LARGE","NORAD_CAT_ID":"47399","INCLINATION":"53.0537","ECCENTRICITY":"0.00017860","TLE_LINE2":"2 47399  53.0537 187.2036 0001786  62.1211 297.9959 15.06393357 85048","MEAN_MOTION_DOT":"-0.00000568","MEAN_MOTION_DDOT":"0.0000000000000","FILE":"3527697","CLASSIFICATION_TYPE":"U","EPHEMERIS_TYPE":"0","TLE_LINE1":"1 47399U 21005BC  22214.22688297 -.00000568  00000-0 -19263-4 0  9991","MEAN_MOTION":"15.06393357","REV_AT_EPOCH":"8504","ELEMENT_SET_NO":"999","RA_OF_ASC_NODE":"187.2036","PERIOD":"95.593"},{"DECAY_DATE":null,"GP_ID":"209426605","BSTAR":"0.00002176400000","MEAN_ANOMALY":"292.5690","LAUNCH_DATE":"2021-01-20","EPOCH":"2022-08-02T06:06:28.185696","MEAN_ELEMENT_THEORY":"SGP4","OBJECT_NAME":"STARLINK-2122","SITE":"AFETR","SEMIMAJOR_AXIS":"6925.351","OBJECT_ID":"2021-005BD","CENTER_NAME":"EARTH","COUNTRY_CODE":"US","REF_FRAME":"TEME","APOAPSIS":"548.496","OBJECT_TYPE":"PAYLOAD","PERIAPSIS":"545.935","TIME_SYSTEM":"UTC","TLE_LINE1":"1 47400U 21005BD  22214.25449289  .00000043  00000-0  21764-4 0  9998","MEAN_MOTION":"15.06399322","MEAN_MOTION_DDOT":"0.0000000000000","FILE":"3527697","CLASSIFICATION_TYPE":"U","EPHEMERIS_TYPE":"0","RA_OF_ASC_NODE":"166.8442","ELEMENT_SET_NO":"999","PERIOD":"95.592","REV_AT_EPOCH":"8533","NORAD_CAT_ID":"47400","ARG_OF_PERICENTER":"67.5495","RCS_SIZE":"LARGE","TLE_LINE2":"2 47400  53.0555 166.8442 0001849  67.5495 292.5690 15.06399322 85331","MEAN_MOTION_DOT":"0.00000043","INCLINATION":"53.0555","ECCENTRICITY":"0.00018490"},{"MEAN_ANOMALY":"299.5604","BSTAR":"0.00011952000000","OBJECT_NAME":"STARLINK-2123","LAUNCH_DATE":"2021-01-20","MEAN_ELEMENT_THEORY":"SGP4","EPOCH":"2022-08-02T08:07:13.186848","GP_ID":"209427355","DECAY_DATE":null,"APOAPSIS":"548.635","REF_FRAME":"TEME","TIME_SYSTEM":"UTC","PERIAPSIS":"545.797","OBJECT_TYPE":"PAYLOAD","SEMIMAJOR_AXIS":"6925.351","SITE":"AFETR","COUNTRY_CODE":"US","OBJECT_ID":"2021-005BE","CENTER_NAME":"EARTH","PERIOD":"95.592","RA_OF_ASC_NODE":"176.4736","ELEMENT_SET_NO":"999","REV_AT_EPOCH":"8521","MEAN_MOTION":"15.06399342","TLE_LINE1":"1 47401U 21005BE  22214.33834707  .00001499  00000-0  11952-3 0  9994","EPHEMERIS_TYPE":"0","CLASSIFICATION_TYPE":"U","FILE":"3527697","MEAN_MOTION_DDOT":"0.0000000000000","MEAN_MOTION_DOT":"0.00001499","TLE_LINE2":"2 47401  53.0541 176.4736 0002049  60.5589 299.5604 15.06399342 85211","ECCENTRICITY":"0.00020490","INCLINATION":"53.0541","NORAD_CAT_ID":"47401","RCS_SIZE":"LARGE","ARG_OF_PERICENTER":"60.5589"},{"TLE_LINE1":"1 47402U 21005BF  22214.15773691  .00001377  00000-0  11134-3 0  9996","MEAN_MOTION":"15.06400177","MEAN_MOTION_DDOT":"0.0000000000000","FILE":"3527697","CLASSIFICATION_TYPE":"U","EPHEMERIS_TYPE":"0","RA_OF_ASC_NODE":"177.2712","ELEMENT_SET_NO":"999","PERIOD":"95.592","REV_AT_EPOCH":"8518","NORAD_CAT_ID":"47402","ARG_OF_PERICENTER":"61.4599","RCS_SIZE":"LARGE","TLE_LINE2":"2 47402  53.0542 177.2712 0002131  61.4599 298.6605 15.06400177 85185","MEAN_MOTION_DOT":"0.00001377","INCLINATION":"53.0542","ECCENTRICITY":"0.00021310","DECAY_DATE":null,"GP_ID":"209427607","BSTAR":"0.00011134000000","MEAN_ANOMALY":"298.6605","MEAN_ELEMENT_THEORY":"SGP4","LAUNCH_DATE":"2021-01-20","EPOCH":"2022-08-02T03:47:08.469024","OBJECT_NAME":"STARLINK-2124","SITE":"AFETR","SEMIMAJOR_AXIS":"6925.348","CENTER_NAME":"EARTH","OBJECT_ID":"2021-005BF","COUNTRY_CODE":"US","REF_FRAME":"TEME","APOAPSIS":"548.689","OBJECT_TYPE":"PAYLOAD","PERIAPSIS":"545.737","TIME_SYSTEM":"UTC"},{"PERIAPSIS":"546.174","TIME_SYSTEM":"UTC","OBJECT_TYPE":"PAYLOAD","REF_FRAME":"TEME","APOAPSIS":"548.278","OBJECT_ID":"2021-005BG","CENTER_NAME":"EARTH","COUNTRY_CODE":"US","SEMIMAJOR_AXIS":"6925.361","SITE":"AFETR","OBJECT_NAME":"STARLINK-2127","EPOCH":"2022-08-02T07:08:50.616384","LAUNCH_DATE":"2021-01-20","MEAN_ELEMENT_THEORY":"SGP4","MEAN_ANOMALY":"291.5137","BSTAR":"0.00013389000000","GP_ID":"209428357","DECAY_DATE":null,"INCLINATION":"53.0545","ECCENTRICITY":"0.00015190","MEAN_MOTION_DOT":"0.00001713","TLE_LINE2":"2 47403  53.0545 176.6519 0001519  68.6014 291.5137 15.06395863 85207","RCS_SIZE":"LARGE","ARG_OF_PERICENTER":"68.6014","NORAD_CAT_ID":"47403","REV_AT_EPOCH":"8520","RA_OF_ASC_NODE":"176.6519","ELEMENT_SET_NO":"999","PERIOD":"95.592","CLASSIFICATION_TYPE":"U","EPHEMERIS_TYPE":"0","MEAN_MOTION_DDOT":"0.0000000000000","FILE":"3527697","TLE_LINE1":"1 47403U 21005BG  22214.29780806  .00001713  00000-0  13389-3 0  9996","MEAN_MOTION":"15.06395863"},{"PERIOD":"95.592","RA_OF_ASC_NODE":"177.2626","ELEMENT_SET_NO":"999","REV_AT_EPOCH":"8518","MEAN_MOTION":"15.06399143","TLE_LINE1":"1 47404U 21005BH  22214.16142743 -.00001100  00000-0 -54968-4 0  9996","EPHEMERIS_TYPE":"0","CLASSIFICATION_TYPE":"U","FILE":"3527697","MEAN_MOTION_DDOT":"0.0000000000000","MEAN_MOTION_DOT":"-0.00001100","TLE_LINE2":"2 47404  53.0545 177.2626 0001984  64.3599 295.7594 15.06399143 85186","ECCENTRICITY":"0.00019840","INCLINATION":"53.0545","NORAD_CAT_ID":"47404","RCS_SIZE":"LARGE","ARG_OF_PERICENTER":"64.3599","MEAN_ANOMALY":"295.7594","BSTAR":"-0.00005496800000","OBJECT_NAME":"STARLINK-2128","EPOCH":"2022-08-02T03:52:27.329952","LAUNCH_DATE":"2021-01-20","MEAN_ELEMENT_THEORY":"SGP4","GP_ID":"209427105","DECAY_DATE":null,"APOAPSIS":"548.590","REF_FRAME":"TEME","TIME_SYSTEM":"UTC","PERIAPSIS":"545.842","OBJECT_TYPE":"PAYLOAD","SEMIMAJOR_AXIS":"6925.351","SITE":"AFETR","COUNTRY_CODE":"US","CENTER_NAME":"EARTH","OBJECT_ID":"2021-005BH"},{"DECAY_DATE":null,"GP_ID":"209426856","BSTAR":"-0.00001924300000","MEAN_ANOMALY":"302.7744","MEAN_ELEMENT_THEORY":"SGP4","LAUNCH_DATE":"2021-01-20","EPOCH":"2022-08-02T11:24:56.363904","OBJECT_NAME":"STARLINK-2130","SITE":"AFETR","SEMIMAJOR_AXIS":"6925.366","OBJECT_ID":"2021-005BJ","CENTER_NAME":"EARTH","COUNTRY_CODE":"US","REF_FRAME":"TEME","APOAPSIS":"548.349","OBJECT_TYPE":"PAYLOAD","PERIAPSIS":"546.114","TIME_SYSTEM":"UTC","TLE_LINE1":"1 47405U 21005BJ  22214.47565236 -.00000568  00000-0 -19243-4 0  9991","MEAN_MOTION":"15.06394164","MEAN_MOTION_DDOT":"0.0000000000000","FILE":"3527697","CLASSIFICATION_TYPE":"U","EPHEMERIS_TYPE":"0","RA_OF_ASC_NODE":"205.8376","ELEMENT_SET_NO":"999","PERIOD":"95.593","REV_AT_EPOCH":"8480","NORAD_CAT_ID":"47405","ARG_OF_PERICENTER":"57.3400","RCS_SIZE":"LARGE","TLE_LINE2":"2 47405  53.0538 205.8376 0001613  57.3400 302.7744 15.06394164 84803","MEAN_MOTION_DOT":"-0.00000568","INCLINATION":"53.0538","ECCENTRICITY":"0.00016130"}];
